satname,norad_id,inclination_deg,eccentricity,mean_motion_rev_per_day,perigee_km,apogee_km,l1,l2
STARLINK-1556,46033,53.0627,0.0001047,15.09375738,537.3822059213726,538.830467276056,1 46033U 20055G   26060.91668981  .00005424  00000+0  35343-3 0  9995,2 46033  53.0627 161.4990 0001047  65.4131 354.2614 15.09375738  5832
STARLINK-1557,46034,53.0678,8.33e-05,15.10413568,534.3619381874832,535.5136564487166,1 46034U 20055H   26060.91668981  .00007704  00000+0  48058-3 0  9996,2 46034  53.0678 161.4794 0000833  67.2838 341.9218 15.10413568  5836
STARLINK-1558,46035,53.0579,0.0001297,15.06516943,545.9549964464059,547.7513388958996,1 46035U 20055J   26060.65290798  .00016164  00000+0  10981-2 0  9998,2 46035  53.0579 162.6998 0001297  91.5547 268.5590 15.06516943307689
STARLINK-1560,46036,53.0557,0.0001215,15.06406771,546.3493785477967,548.0322332046253,1 46036U 20055K   26060.50556652  .00002160  00000+0  16384-3 0  9992,2 46036  53.0557 163.3610 0001215  85.5125 274.6002 15.06406771307661
STARLINK-1567,46038,53.0561,0.0001177,15.06399734,546.397259568862,548.027486811312,1 46038U 20055M   26060.64933030  .00000107  00000+0  26061-4 0  9991,2 46038  53.0561 162.7143 0001177  84.6330 275.4793 15.06399734307674
STARLINK-1569,46039,53.0571,0.0001786,15.07218496,543.4677014625286,545.9405403109095,1 46039U 20055N   26060.78846990  .00106181  00000+0  68867-2 0  9992,2 46039  53.0571 162.0793 0001786 102.8011 257.3178 15.07218496307699
STARLINK-1582,46043,53.0556,0.0001458,15.06407123,546.1800144183962,548.1994396920063,1 46043U 20055S   26060.59771939  .00003750  00000+0  27047-3 0  9990,2 46043  53.0556 162.9454 0001458  90.1396 269.9760 15.06407123307660
STARLINK-1591,46045,53.0667,0.0002034,15.09843081,535.272595624845,538.0855428018003,1 46045U 20055U   26060.91668981  .00009804  00000+0  61617-3 0  9997,2 46045  53.0667 161.4862 0002034  76.1796  90.0642 15.09843081  5680
STARLINK-1524,46047,53.1573,0.0001521,15.29363147,476.67212587405993,478.75767602232736,1 46047U 20055W   26060.68122022  .00002620  00000+0  10309-3 0  9995,2 46047  53.1573 150.9897 0001521  95.1143 265.0031 15.29363147307848
STARLINK-1527,46048,53.1571,0.0002004,15.29815592,474.98944093515365,477.7367245683208,1 46048U 20055X   26060.75540575  .00100856  00000+0  34116-2 0  9992,2 46048  53.1571 150.7688 0002004 133.5330 226.5837 15.29815592307836
STARLINK-1540,46051,53.157,0.0001247,15.29357158,476.8778724282374,478.5877263562061,1 46051U 20055AA  26060.91668981 -.00016519  00000+0 -56136-3 0  9997,2 46051  53.1570 149.9178 0001247 103.3550 302.4683 15.29357158  5837
STARLINK-1541,46052,53.1506,0.0001589,15.283866,479.54504887211897,481.7247665843943,1 46052U 20055AB  26060.91668981  .00763295  00000+0  25296-1 0  9997,2 46052  53.1506 149.9689 0001589  79.8356  18.4634 15.28386600  5679
STARLINK-1543,46053,53.1563,0.000138,15.29359279,476.78035150033975,478.67256981548053,1 46053U 20055AC  26060.91668981 -.00012852  00000+0 -43376-3 0  9997,2 46053  53.1563 149.9920 0001380  90.7528 334.3227 15.29359279  5731
STARLINK-1548,46054,53.1561,8.94e-05,15.29361622,477.10654491307287,478.3323720478493,1 46054U 20055AD  26060.91668981 -.00015187  00000+0 -51495-3 0  9993,2 46054  53.1561 149.9929 0000894  86.7139 297.8860 15.29361622  5833
STARLINK-1554,46055,53.1508,0.0001372,15.28417263,479.602163034152,481.48418487388426,1 46055U 20055AE  26060.91668981  .00862909  00000+0  28655-1 0  9994,2 46055  53.1508 150.1251 0001372  65.5977 326.5640 15.28417263  5674
STARLINK-1564,46058,53.1565,0.000111,15.29357397,476.97108365736403,478.4930865942615,1 46058U 20055AH  26060.91668981 -.00014783  00000+0 -50094-3 0  9992,2 46058  53.1565 150.4653 0001110  88.0362 311.1248 15.29357397  5730
STARLINK-1570,46059,53.1553,0.000112,15.29364184,476.9439467647744,478.47965689638386,1 46059U 20055AJ  26060.48123309  .00001121  00000+0  51151-4 0  9991,2 46059  53.1553 152.0240 0001120  79.1646 280.9480 15.29364184307777
STARLINK-1572,46060,53.1538,0.0001064,15.29300768,477.1718471469576,478.63081210350174,1 46060U 20055AK  26060.91668981  .00045483  00000+0  15815-2 0  9995,2 46060  53.1538 150.1511 0001064 109.5082  68.5824 15.29300768  5833
STARLINK-1573,46061,53.1601,0.0001144,15.30187416,474.46861545735555,476.0366710077269,1 46061U 20055AL  26060.91668981 -.00019376  00000+0 -64400-3 0  9995,2 46061  53.1601 149.9678 0001144  87.5927 231.5950 15.30187416  5687
STARLINK-1577,46063,53.1552,0.0001094,15.29391528,476.88006349437546,478.38010533244415,1 46063U 20055AN  26060.75276117  .00015378  00000+0  54353-3 0  9997,2 46063  53.1552 150.6813 0001094  88.6689 271.4437 15.29391528307851
STARLINK-1583,46064,53.1586,0.0001275,15.29362039,476.84409071657046,478.5923337956956,1 46064U 20055AP  26060.52562725  .00002150  00000+0  86796-4 0  9997,2 46064  53.1586 151.7534 0001275  95.1472 264.9674 15.29362039307816
STARLINK-1525,46066,53.0544,0.0001856,15.0643993,545.8038589632606,548.374502921627,1 46066U 20055AR  26060.61152478  .00012552  00000+0  85914-3 0  9996,2 46066  53.0544 132.8835 0001856  96.9484 263.1716 15.06439930308080
STARLINK-1536,46070,53.0564,0.0001503,15.0640406,546.1582366329403,548.239992669005,1 46070U 20055AV  26060.45673203  .00000666  00000+0  63590-4 0  9997,2 46070  53.0564 133.5798 0001503  92.0814 268.0347 15.06404060308075
STARLINK-1542,46073,53.0549,0.000128,15.06400996,546.3220611187253,548.0949495680925,1 46073U 20055AY  26060.58205660  .00004183  00000+0  29957-3 0  9998,2 46073  53.0549 133.0157 0001280  77.8769 282.2364 15.06400996308089
STARLINK-1549,46074,53.0551,0.0001264,15.06403513,546.325428423369,548.0761538169645,1 46074U 20055AZ  26060.63365625  .00000965  00000+0  83665-4 0  9994,2 46074  53.0551 132.7838 0001264  91.0853 269.0281 15.06403513308088
STARLINK-1551,46075,53.056,0.0001491,15.06407067,546.1573324451938,548.2224649263817,1 46075U 20055BA  26060.46041816  .00001436  00000+0  11524-3 0  9997,2 46075  53.0560 133.5624 0001491  99.3211 260.7947 15.06407067308065
STARLINK-1552,46076,53.0562,0.0001507,15.06411787,546.1317881328605,548.2190773000812,1 46076U 20055BB  26060.48622038 -.00001612  00000+0 -89326-4 0  9995,2 46076  53.0562 133.4477 0001507  94.7240 265.3921 15.06411787308058
STARLINK-1559,46077,53.0281,0.0003703,15.2875748,476.98616810569183,482.06495299803646,1 46077U 20055BC  26060.39011986  .00051414  00000+0  18143-2 0  9990,2 46077  53.0281 112.5476 0003703   7.8478 352.2577 15.28757480308311
